{
  "norad_id": 68679,
  "name": "STARLINK-37310",
  "history": [
    {
      "epoch": "2026-04-22T14:23:33.082944Z",
      "apogee_km": 338.81492002802497,
      "perigee_km": 337.7483527485665,
      "latitude_deg": 3.817897415892691e-05,
      "longitude_deg": -82.87300483565014,
      "height_km": 341.73308049580606,
      "semi_major_axis_km": 6716.418636388295,
      "eccentricity": 7.94e-05,
      "inclination_deg": 97.2832,
      "raan_deg": 343.6738,
      "arg_perigee_deg": 121.8397,
      "mean_anomaly_deg": 238.2947,
      "mean_motion_rev_day": 15.7723398
    }
  ]
}